satname,norad_id,inclination_deg,eccentricity,mean_motion_rev_per_day,perigee_km,apogee_km,l1,l2
STARLINK-1582,46043,53.162,0.0001417,15.30192,474.26783270840497,476.2100794543576,1 46043U 20055S   26082.21939776  .00013800  00000+0  47732-3 0  9998,2 46043  53.1620  63.8491 0001417  86.5032 273.6131 15.30192000310956
STARLINK-1591,46045,53.1588,0.0001652,15.30179314,474.1446508169556,476.4090187479678,1 46045U 20055U   26082.58335647 -.00025842  00000+0 -86392-3 0  9993,2 46045  53.1588  62.1702 0001652  74.2415 346.7339 15.30179314  5729
STARLINK-1524,46047,53.1613,0.0001421,15.30184477,474.2875507758117,476.23528660640295,1 46047U 20055W   26082.17459164 -.00002743  00000+0 -80539-4 0  9994,2 46047  53.1613  51.2015 0001421  96.8749 263.2413 15.30184477311137
STARLINK-1527,46048,53.1612,0.0001255,15.3018939,474.38664948939004,476.1068488104265,1 46048U 20055X   26082.18092093  .00000443  00000+0  27097-4 0  9993,2 46048  53.1612  51.2716 0001255  92.7006 267.4138 15.30189390311118
STARLINK-1540,46051,53.1609,0.0001497,15.30190225,474.218304788722,476.27020713675665,1 46051U 20055AA  26082.20408654 -.00002481  00000+0 -71698-4 0  9996,2 46051  53.1609  51.0724 0001497 101.7651 258.3518 15.30190225311154
STARLINK-1541,46052,53.16,0.0001266,15.30215922,474.29990125605127,476.0351579629487,1 46052U 20055AB  26082.19354961 -.00005514  00000+0 -17410-3 0  9997,2 46052  53.1600  51.1630 0001266  90.8508 269.2638 15.30215922311118
STARLINK-1543,46053,53.161,0.0001502,15.30192547,474.2079460009463,476.2666996475218,1 46053U 20055AC  26082.19988555 -.00002104  00000+0 -58925-4 0  9999,2 46053  53.1610  51.1603 0001502  99.2821 260.8350 15.30192547311142
STARLINK-1548,46054,53.1633,0.0001616,15.30194194,474.1249006477283,476.3399096394696,1 46054U 20055AD  26082.20726281 -.00002224  00000+0 -62989-4 0  9996,2 46054  53.1633  51.1277 0001616 111.1532 248.9642 15.30194194311145
STARLINK-1554,46055,53.1622,0.0001476,15.3019273,474.2252184454401,476.24833438423866,1 46055U 20055AE  26082.20517271  .00000948  00000+0  44159-4 0  9992,2 46055  53.1622  51.2605 0001476 105.4646 254.6518 15.30192730311146
STARLINK-1564,46058,53.1619,0.0001848,15.30186797,473.9879847332959,476.5209982285469,1 46058U 20055AH  26082.20311832 -.00003319  00000+0 -99999-4 0  9999,2 46058  53.1619  51.6026 0001848 100.7204 259.4005 15.30186797311136
STARLINK-1570,46059,53.1627,0.0001265,15.30205014,474.33315141701405,476.06704570295005,1 46059U 20055AJ  26082.23254153  .00002884  00000+0  10943-3 0  9990,2 46059  53.1627  51.0053 0001265  88.4489 271.6656 15.30205014311109
STARLINK-1572,46060,53.1605,0.0001369,15.30192074,474.3005079906652,476.1769622669435,1 46060U 20055AK  26082.18411310  .00005943  00000+0  21268-3 0  9997,2 46060  53.1605  51.4350 0001369  86.7378 273.3780 15.30192074311102
STARLINK-1573,46061,53.1614,0.0001205,15.3019726,474.3974206674493,476.0490804878382,1 46061U 20055AL  26082.15141423  .00000408  00000+0  25886-4 0  9992,2 46061  53.1614  51.3319 0001205 100.6202 259.4935 15.30197260311130
STARLINK-1577,46063,53.1623,0.0001816,15.30197888,473.9768055968998,476.4659453588729,1 46063U 20055AN  26082.11244633  .00011182  00000+0  38913-3 0  9992,2 46063  53.1623  51.4859 0001816 119.4002 240.7181 15.30197888311127
STARLINK-1583,46064,53.1614,0.0001762,15.30186987,474.04635668623087,476.4614916479077,1 46064U 20055AP  26082.21357310 -.00002859  00000+0 -84455-4 0  9997,2 46064  53.1614  51.0506 0001762  95.1263 264.9939 15.30186987311130
STARLINK-1525,46066,53.0551,0.0001788,15.30044777,474.4531142750093,476.9040387251662,1 46066U 20055AR  26082.58335647  .00033910  00000+0  11572-2 0  9996,2 46066  53.0551  32.6099 0001788  83.2504 102.2191 15.30044777  5681
STARLINK-1536,46070,53.0563,0.0001379,15.06395926,546.2690369016609,548.1790514776476,1 46070U 20055AV  26082.15217867  .00000003  00000+0  19094-4 0  9993,2 46070  53.0563  36.1827 0001379  91.8485 268.2662 15.06395926311343
STARLINK-1542,46073,53.0569,0.0001544,15.06397295,546.1505732887008,548.2891234834833,1 46073U 20055AY  26082.14480269 -.00000672  00000+0 -26241-4 0  9999,2 46073  53.0569  36.2166 0001544  92.2680 267.8486 15.06397295311334
STARLINK-1549,46074,53.0562,0.0001617,15.06393487,546.1116873275641,548.3513515067443,1 46074U 20055AZ  26082.13006233 -.00000814  00000+0 -35756-4 0  9993,2 46074  53.0562  36.2837 0001617  83.9664 276.1510 15.06393487311322
STARLINK-1551,46075,53.0553,0.0001338,15.0639803,546.290983266219,548.1442081560308,1 46075U 20055BA  26082.15586580 -.00001637  00000+0 -91003-4 0  9995,2 46075  53.0553  36.1669 0001338  87.9415 272.1727 15.06398030311339
STARLINK-1552,46076,53.0565,0.0001412,15.06402704,546.2254125339159,548.1811286263273,1 46076U 20055BB  26082.18165252  .00001620  00000+0  12760-3 0  9990,2 46076  53.0565  36.0508 0001412  98.2620 261.8529 15.06402704311328
STARLINK-1559,46077,53.0264,0.0004389,15.30854313,470.2550255643773,476.26918369842224,1 46077U 20055BC  26082.21029637  .00035882  00000+0  11931-2 0  9996,2 46077  53.0264  10.9399 0004389  88.4023 271.7479 15.30854313311652
STARLINK-1566,46079,53.0567,0.0001864,15.06400697,545.9185371614758,548.5003063074992,1 46079U 20055BE  26082.13374772  .00000678  00000+0  64435-4 0  9996,2 46079  53.0567  36.2673 0001864  79.3628 280.7570 15.06400697311333
STARLINK-1568,46080,53.0616,0.0005944,15.47583501,419.75445820661025,427.8405979736044,1 46080U 20055BF  26082.38300707  .00038065  00000+0  73139-3 0  9993,2 46080  53.0616 327.5733 0005944 159.5663 200.5583 15.47583501312310
STARLINK-1578,46082,53.0594,0.0001667,15.06396925,546.0665252107647,548.3754395620927,1 46082U 20055BH  26082.14849100 -.00001508  00000+0 -82354-4 0  9998,2 46082  53.0594  36.1985 0001667 106.4467 253.6705 15.06396925311333
STARLINK-1579,46083,53.0567,0.0001729,15.06387598,546.0521692051416,548.4469678805435,1 46083U 20055BJ  26082.11806564 -.00001212  00000+0 -62487-4 0  9990,2 46083  53.0567  36.3278 0001729  89.7673 270.3514 15.06387598311321
STARLINK-1585,46117,53.0374,0.000614,15.92847609,290.221662864059,298.41543828016074,1 46117U 20057A   26082.58335647  .00427456  82059-4  12109-2 0  9993,2 46117  53.0374 176.4794 0006140 356.0824 215.4336 15.92847609  5932
STARLINK-1593,46119,53.0442,0.000287,15.79577026,329.7124769375414,333.5638878922473,1 46119U 20057C   26082.58335647  .00179836  00000+0  95022-3 0  9998,2 46119  53.0442 200.9613 0002870 337.4035 208.6337 15.79577026  5973
